1 56000U 23042Q   25332.17733147 -.00000271  00000+0 -50145-5 0  9991
2 56000  43.0011 247.4140 0001029 271.7739  88.2986 15.02533710147642
